{"type": "FeatureCollection", "features": [ {"type": "Feature", "properties": {"norad_id": 37478, "name": "FENGYUN 1C DEB", "group": "fengyun-1c-debris", "lat": -13.182340266926328, "lon": -30.546301860895564, "alt_km": 864.7145034780087, "timestamp": "2025-12-10T11:33:53.674397+00:00", "meta": {"OBJECT_NAME": "FENGYUN 1C DEB", "OBJECT_ID": "1999-025EJY", "EPOCH": "2025-12-05T17:22:19.375968", "MEAN_MOTION": 13.02904965, "ECCENTRICITY": 0.05487468, "INCLINATION": 99.6454, "RA_OF_ASC_NODE": 322.9064, "ARG_OF_PERICENTER": 335.2664, "MEAN_ANOMALY": 22.3015, "EPHEMERIS_TYPE": 0, "CLASSIFICATION_TYPE": "U", "NORAD_CAT_ID": 37478, "ELEMENT_SET_NO": 999, "REV_AT_EPOCH": 56470, "BSTAR": 0.0085592923, "MEAN_MOTION_DOT": 5.462e-05, "MEAN_MOTION_DDOT": 0}, "tle": {"line1": "1 37478U 99025EJY 25339.72383537  .00005462  00000+0  85593-2 0  9992", "line2": "2 37478  99.6454 322.9064 0548746 335.2664  22.3015 13.02904965564701"}}, "geometry": {"type": "Point", "coordinates": [-30.546301860895564, -13.182340266926328]}}, {"type": "Feature", "properties": {"norad_id": 37589, "name": "FENGYUN 1C DEB", "group": "fengyun-1c-debris", "lat": 40.96661666968487, "lon": 75.04421524216285, "alt_km": 920.0047112166349, "timestamp": "2025-12-10T11:33:53.674407+00:00", "meta": {"OBJECT_NAME": "FENGYUN 1C DEB", "OBJECT_ID": "1999-025EKH", "EPOCH": "2025-12-09T11:01:27.471072", "MEAN_MOTION": 14.08116803, "ECCENTRICITY": 0.01193202, "INCLINATION": 99.0725, "RA_OF_ASC_NODE": 246.0419, "ARG_OF_PERICENTER": 273.44, "MEAN_ANOMALY": 85.3126, "EPHEMERIS_TYPE": 0, "CLASSIFICATION_TYPE": "U", "NORAD_CAT_ID": 37589, "ELEMENT_SET_NO": 999, "REV_AT_EPOCH": 82538, "BSTAR": 0.0049086656, "MEAN_MOTION_DOT": 8.892e-05, "MEAN_MOTION_DDOT": 0}, "tle": {"line1": "1 37589U 99025EKH 25343.45934573  .00008892  00000+0  49087-2 0  9990", "line2": "2 37589  99.0725 246.0419 0119320 273.4400  85.3126 14.08116803825381"}}, "geometry": {"type": "Point", "coordinates": [75.04421524216285, 40.96661666968487]}}, {"type": "Feature", "properties": {"norad_id": 37594, "name": "FENGYUN 1C DEB", "group": "fengyun-1c-debris", "lat": -45.318705850605156, "lon": 22.8228428169843, "alt_km": 813.3271695841577, "timestamp": "2025-12-10T11:33:53.674417+00:00", "meta": {"OBJECT_NAME": "FENGYUN 1C DEB", "OBJECT_ID": "1999-025EKN", "EPOCH": "2025-12-01T20:10:06.711744", "MEAN_MOTION": 14.11100402, "ECCENTRICITY": 0.00849769, "INCLINATION": 98.7356, "RA_OF_ASC_NODE": 5.4727, "ARG_OF_PERICENTER": 301.0362, "MEAN_ANOMALY": 58.2487, "EPHEMERIS_TYPE": 0, "CLASSIFICATION_TYPE": "U", "NORAD_CAT_ID": 37594, "ELEMENT_SET_NO": 999, "REV_AT_EPOCH": 77608, "BSTAR": 0.00031068206, "MEAN_MOTION_DOT": 5.35e-06, "MEAN_MOTION_DDOT": 0}, "tle": {"line1": "1 37594U 99025EKN 25335.84035546  .00000535  00000+0  31068-3 0  9999", "line2": "2 37594  98.7356   5.4727 0084976 301.0362  58.2487 14.11100402776088"}}, "geometry": {"type": "Point", "coordinates": [22.8228428169843, -45.318705850605156]}}, {"type": "Feature", "properties": {"norad_id": 37600, "name": "FENGYUN 1C DEB", "group": "fengyun-1c-debris", "lat": 3.6870285297809664, "lon": 140.71522960107032, "alt_km": 790.048556542185, "timestamp": "2025-12-10T11:33:53.674427+00:00", "meta": {"OBJECT_NAME": "FENGYUN 1C DEB", "OBJECT_ID": "1999-025EKU", "EPOCH": "2025-12-08T05:42:14.704416", "MEAN_MOTION": 13.82487152, "ECCENTRICITY": 0.03571755, "INCLINATION": 98.9374, "RA_OF_ASC_NODE": 139.1622, "ARG_OF_PERICENTER": 61.7871, "MEAN_ANOMALY": 301.8867, "EPHEMERIS_TYPE": 0, "CLASSIFICATION_TYPE": "U", "NORAD_CAT_ID": 37600, "ELEMENT_SET_NO": 999, "REV_AT_EPOCH": 88425, "BSTAR": 0.0032583606, "MEAN_MOTION_DOT": 5.721e-05, "MEAN_MOTION_DDOT": 0}, "tle": {"line1": "1 37600U 99025EKU 25342.23767019  .00005721  00000+0  32584-2 0  9990", "line2": "2 37600  98.9374 139.1622 0357175  61.7871 301.8867 13.82487152884251"}}, "geometry": {"type": "Point", "coordinates": [140.71522960107032, 3.6870285297809664]}}, {"type": "Feature", "properties": {"norad_id": 37683, "name": "FENGYUN 1C DEB", "group": "fengyun-1c-debris", "lat": 22.6848910809814, "lon": -98.59718251776967, "alt_km": 1249.707013567343, "timestamp": "2025-12-10T11:33:53.674437+00:00", "meta": {"OBJECT_NAME": "FENGYUN 1C DEB", "OBJECT_ID": "1999-025EKY", "EPOCH": "2025-12-09T14:24:19.052928", "MEAN_MOTION": 13.31891434, "ECCENTRICITY": 0.0584846, "INCLINATION": 98.0018, "RA_OF_ASC_NODE": 264.0818, "ARG_OF_PERICENTER": 133.0505, "MEAN_ANOMALY": 351.3264, "EPHEMERIS_TYPE": 0, "CLASSIFICATION_TYPE": "U", "NORAD_CAT_ID": 37683, "ELEMENT_SET_NO": 999, "REV_AT_EPOCH": 29198, "BSTAR": 0.002005, "MEAN_MOTION_DOT": 2.501e-05, "MEAN_MOTION_DDOT": 0}, "tle": {"line1": "1 37683U 99025EKY 25343.60022052  .00002501  00000+0  20050-2 0  9992", "line2": "2 37683  98.0018 264.0818 0584846 133.0505 351.3264 13.31891434291986"}}, "geometry": {"type": "Point", "coordinates": [-98.59718251776967, 22.6848910809814]}}, {"type": "Feature", "properties": {"norad_id": 37686, "name": "FENGYUN 1C DEB", "group": "fengyun-1c-debris", "lat": 17.404284520210442, "lon": 0.31493667365196015, "alt_km": 866.8661465472269, "timestamp": "2025-12-10T11:33:53.674449+00:00", "meta": {"OBJECT_NAME": "FENGYUN 1C DEB", "OBJECT_ID": "1999-025ELB", "EPOCH": "2025-12-07T08:01:13.554624", "MEAN_MOTION": 13.35357238, "ECCENTRICITY": 0.03961144, "INCLINATION": 99.0216, "RA_OF_ASC_NODE": 0.3813, "ARG_OF_PERICENTER": 55.6647, "MEAN_ANOMALY": 320.2432, "EPHEMERIS_TYPE": 0, "CLASSIFICATION_TYPE": "U", "NORAD_CAT_ID": 37686, "ELEMENT_SET_NO": 999, "REV_AT_EPOCH": 60555, "BSTAR": 0.00092551492, "MEAN_MOTION_DOT": 6.98e-06, "MEAN_MOTION_DDOT": 0}, "tle": {"line1": "1 37686U 99025ELB 25341.33418466  .00000698  00000+0  92551-3 0  9992", "line2": "2 37686  99.0216   0.3813 0396114  55.6647 320.2432 13.35357238605558"}}, "geometry": {"type": "Point", "coordinates": [0.31493667365196015, 17.404284520210442]}}, {"type": "Feature", "properties": {"norad_id": 37687, "name": "FENGYUN 1C DEB", "group": "fengyun-1c-debris", "lat": 25.955239175739973, "lon": 15.860612275339784, "alt_km": 715.5019324054729, "timestamp": "2025-12-10T11:33:53.674459+00:00", "meta": {"OBJECT_NAME": "FENGYUN 1C DEB", "OBJECT_ID": "1999-025ELC", "EPOCH": "2025-12-09T22:08:56.355072", "MEAN_MOTION": 13.85271364, "ECCENTRICITY": 0.0333507, "INCLINATION": 98.2054, "RA_OF_ASC_NODE": 19.3976, "ARG_OF_PERICENTER": 6.6751, "MEAN_ANOMALY": 112.1518, "EPHEMERIS_TYPE": 0, "CLASSIFICATION_TYPE": "U", "NORAD_CAT_ID": 37687, "ELEMENT_SET_NO": 999, "REV_AT_EPOCH": 83215, "BSTAR": 0.004503, "MEAN_MOTION_DOT": 7.869e-05, "MEAN_MOTION_DDOT": 0}, "tle": {"line1": "1 37687U 99025ELC 25343.92287448  .00007869  00000+0  45030-2 0  9990", "line2": "2 37687  98.2054  19.3976 0333507   6.6751 112.1518 13.85271364832150"}}, "geometry": {"type": "Point", "coordinates": [15.860612275339784, 25.955239175739973]}}, {"type": "Feature", "properties": {"norad_id": 37689, "name": "FENGYUN 1C DEB", "group": "fengyun-1c-debris", "lat": -75.57357770034375, "lon": 167.6525624839511, "alt_km": 723.4143175248946, "timestamp": "2025-12-10T11:33:53.674469+00:00", "meta": {"OBJECT_NAME": "FENGYUN 1C DEB", "OBJECT_ID": "1999-025ELE", "EPOCH": "2025-12-07T09:25:52.270176", "MEAN_MOTION": 14.48499283, "ECCENTRICITY": 0.00203303, "INCLINATION": 98.9195, "RA_OF_ASC_NODE": 22.0174, "ARG_OF_PERICENTER": 255.7639, "MEAN_ANOMALY": 104.1295, "EPHEMERIS_TYPE": 0, "CLASSIFICATION_TYPE": "U", "NORAD_CAT_ID": 37689, "ELEMENT_SET_NO": 999, "REV_AT_EPOCH": 57735, "BSTAR": 0.0039954298, "MEAN_MOTION_DOT": 0.00015015, "MEAN_MOTION_DDOT": 0}, "tle": {"line1": "1 37689U 99025ELE 25341.39296609  .00015015  00000+0  39954-2 0  9990", "line2": "2 37689  98.9195  22.0174 0020330 255.7639 104.1295 14.48499283577358"}}, "geometry": {"type": "Point", "coordinates": [167.6525624839511, -75.57357770034375]}}, {"type": "Feature", "properties": {"norad_id": 37691, "name": "FENGYUN 1C DEB", "group": "fengyun-1c-debris", "lat": -76.39096660999951, "lon": -74.38363121870161, "alt_km": 814.5674766163993, "timestamp": "2025-12-10T11:33:53.674479+00:00", "meta": {"OBJECT_NAME": "FENGYUN 1C DEB", "OBJECT_ID": "1999-025ELG", "EPOCH": "2025-12-07T11:26:56.697504", "MEAN_MOTION": 14.57450494, "ECCENTRICITY": 0.02807584, "INCLINATION": 98.3722, "RA_OF_ASC_NODE": 245.1225, "ARG_OF_PERICENTER": 166.3843, "MEAN_ANOMALY": 194.5134, "EPHEMERIS_TYPE": 0, "CLASSIFICATION_TYPE": "U", "NORAD_CAT_ID": 37691, "ELEMENT_SET_NO": 999, "REV_AT_EPOCH": 85557, "BSTAR": 0.0027432659, "MEAN_MOTION_DOT": 0.00021485, "MEAN_MOTION_DDOT": 0}, "tle": {"line1": "1 37691U 99025ELG 25341.47704511  .00021485  00000+0  27433-2 0  9995", "line2": "2 37691  98.3722 245.1225 0280758 166.3843 194.5134 14.57450494855571"}}, "geometry": {"type": "Point", "coordinates": [-74.38363121870161, -76.39096660999951]}}, {"type": "Feature", "properties": {"norad_id": 37693, "name": "FENGYUN 1C DEB", "group": "fengyun-1c-debris", "lat": 23.444721650585937, "lon": -19.445219502500276, "alt_km": 835.36167219655, "timestamp": "2025-12-10T11:33:53.674489+00:00", "meta": {"OBJECT_NAME": "FENGYUN 1C DEB", "OBJECT_ID": "1999-025ELJ", "EPOCH": "2025-12-06T17:55:30.127008", "MEAN_MOTION": 14.0846487, "ECCENTRICITY": 0.00725318, "INCLINATION": 98.6978, "RA_OF_ASC_NODE": 340.7595, "ARG_OF_PERICENTER": 91.6733, "MEAN_ANOMALY": 85.1425, "EPHEMERIS_TYPE": 0, "CLASSIFICATION_TYPE": "U", "NORAD_CAT_ID": 37693, "ELEMENT_SET_NO": 999, "REV_AT_EPOCH": 62064, "BSTAR": 0.00098860763, "MEAN_MOTION_DOT": 1.695e-05, "MEAN_MOTION_DDOT": 0}, "tle": {"line1": "1 37693U 99025ELJ 25340.74687647  .00001695  00000+0  98861-3 0  9991", "line2": "2 37693  98.6978 340.7595 0072531  91.6733  85.1425 14.08464870620642"}}, "geometry": {"type": "Point", "coordinates": [-19.445219502500276, 23.444721650585937]}}]}